[{"CCSDS_OMM_VERS":"2.0","COMMENT":"GENERATED VIA SPACE-TRACK.ORG API","CREATION_DATE":"2020-12-02T18:56:12","ORIGINATOR":"18 SPCS","OBJECT_NAME":"STARLINK-1536","OBJECT_ID":"2020-055AV","CENTER_NAME":"EARTH","REF_FRAME":"TEME","TIME_SYSTEM":"UTC","MEAN_ELEMENT_THEORY":"SGP4","EPOCH":"2020-12-02T01:18:45.069984","MEAN_MOTION":"15.05513277","ECCENTRICITY":"0.00016270","INCLINATION":"53.0020","RA_OF_ASC_NODE":"92.1435","ARG_OF_PERICENTER":"104.1012","MEAN_ANOMALY":"256.0157","EPHEMERIS_TYPE":"0","CLASSIFICATION_TYPE":"U","NORAD_CAT_ID":"46070","ELEMENT_SET_NO":"999","REV_AT_EPOCH":"1884","BSTAR":"0.00096350000000","MEAN_MOTION_DOT":"0.00013761","MEAN_MOTION_DDOT":"0.0000000000000","SEMIMAJOR_AXIS":"6928.067","PERIOD":"95.648","APOAPSIS":"551.059","PERIAPSIS":"548.805","OBJECT_TYPE":"PAYLOAD","RCS_SIZE":"LARGE","COUNTRY_CODE":"US","LAUNCH_DATE":"2020-08-07","SITE":"AFETR","DECAY_DATE":null,"FILE":"2895929","GP_ID":"166734773","TLE_LINE0":"0 STARLINK-1536","TLE_LINE1":"1 46070U 20055AV  20337.05468831  .00013761  00000-0  96350-3 0  9993","TLE_LINE2":"2 46070  53.0020  92.1435 0001627 104.1012 256.0157 15.05513277 18841"},{"CCSDS_OMM_VERS":"2.0","COMMENT":"GENERATED VIA SPACE-TRACK.ORG API","CREATION_DATE":"2020-12-02T19:24:44","ORIGINATOR":"18 SPCS","OBJECT_NAME":"STARLINK-1536","OBJECT_ID":"2020-055AV","CENTER_NAME":"EARTH","REF_FRAME":"TEME","TIME_SYSTEM":"UTC","MEAN_ELEMENT_THEORY":"SGP4","EPOCH":"2020-12-02T01:18:45.069984","MEAN_MOTION":"15.05513277","ECCENTRICITY":"0.00016270","INCLINATION":"53.0020","RA_OF_ASC_NODE":"92.1435","ARG_OF_PERICENTER":"104.1012","MEAN_ANOMALY":"256.0157","EPHEMERIS_TYPE":"0","CLASSIFICATION_TYPE":"U","NORAD_CAT_ID":"46070","ELEMENT_SET_NO":"999","REV_AT_EPOCH":"1938","BSTAR":"0.00096350000000","MEAN_MOTION_DOT":"0.00013761","MEAN_MOTION_DDOT":"0.0000000000000","SEMIMAJOR_AXIS":"6928.067","PERIOD":"95.648","APOAPSIS":"551.059","PERIAPSIS":"548.805","OBJECT_TYPE":"PAYLOAD","RCS_SIZE":"LARGE","COUNTRY_CODE":"US","LAUNCH_DATE":"2020-08-07","SITE":"AFETR","DECAY_DATE":null,"FILE":"2896233","GP_ID":"166760155","TLE_LINE0":"0 STARLINK-1536","TLE_LINE1":"1 46070U 20055AV  20337.05468831  .00013761  00000-0  96350-3 0  9993","TLE_LINE2":"2 46070  53.0020  92.1435 0001627 104.1012 256.0157 15.05513277 19381"},{"CCSDS_OMM_VERS":"2.0","COMMENT":"GENERATED VIA SPACE-TRACK.ORG API","CREATION_DATE":"2020-12-02T18:56:12","ORIGINATOR":"18 SPCS","OBJECT_NAME":"STARLINK-1568","OBJECT_ID":"2020-055BF","CENTER_NAME":"EARTH","REF_FRAME":"TEME","TIME_SYSTEM":"UTC","MEAN_ELEMENT_THEORY":"SGP4","EPOCH":"2020-12-02T01:28:17.252256","MEAN_MOTION":"15.05584059","ECCENTRICITY":"0.00018140","INCLINATION":"53.0021","RA_OF_ASC_NODE":"92.1129","ARG_OF_PERICENTER":"51.4155","MEAN_ANOMALY":"308.6995","EPHEMERIS_TYPE":"0","CLASSIFICATION_TYPE":"U","NORAD_CAT_ID":"46080","ELEMENT_SET_NO":"999","REV_AT_EPOCH":"1884","BSTAR":"-0.00011568000000","MEAN_MOTION_DOT":"-0.00001965","MEAN_MOTION_DDOT":"0.0000000000000","SEMIMAJOR_AXIS":"6927.850","PERIOD":"95.643","APOAPSIS":"550.972","PERIAPSIS":"548.458","OBJECT_TYPE":"PAYLOAD","RCS_SIZE":"LARGE","COUNTRY_CODE":"US","LAUNCH_DATE":"2020-08-07","SITE":"AFETR","DECAY_DATE":null,"FILE":"2896120","GP_ID":"166738913","TLE_LINE0":"0 STARLINK-1568","TLE_LINE1":"1 46080U 20055BF  20337.06131079 -.00001965  00000-0 -11568-3 0  9999","TLE_LINE2":"2 46080  53.0021  92.1129 0001814  51.4155 308.6995 15.05584059 18843"},{"CCSDS_OMM_VERS":"2.0","COMMENT":"GENERATED VIA SPACE-TRACK.ORG API","CREATION_DATE":"2020-12-02T18:56:12","ORIGINATOR":"18 SPCS","OBJECT_NAME":"STARLINK-1559","OBJECT_ID":"2020-055BC","CENTER_NAME":"EARTH","REF_FRAME":"TEME","TIME_SYSTEM":"UTC","MEAN_ELEMENT_THEORY":"SGP4","EPOCH":"2020-12-02T01:33:02.736864","MEAN_MOTION":"15.05592166","ECCENTRICITY":"0.00005980","INCLINATION":"53.0048","RA_OF_ASC_NODE":"92.0986","ARG_OF_PERICENTER":"109.2456","MEAN_ANOMALY":"250.8596","EPHEMERIS_TYPE":"0","CLASSIFICATION_TYPE":"U","NORAD_CAT_ID":"46077","ELEMENT_SET_NO":"999","REV_AT_EPOCH":"1884","BSTAR":"0.00002276300000","MEAN_MOTION_DOT":"0.00000053","MEAN_MOTION_DDOT":"0.0000000000000","SEMIMAJOR_AXIS":"6927.825","PERIOD":"95.643","APOAPSIS":"550.104","PERIAPSIS":"549.276","OBJECT_TYPE":"PAYLOAD","RCS_SIZE":"LARGE","COUNTRY_CODE":"US","LAUNCH_DATE":"2020-08-07","SITE":"AFETR","DECAY_DATE":null,"FILE":"2895945","GP_ID":"166734704","TLE_LINE0":"0 STARLINK-1559","TLE_LINE1":"1 46077U 20055BC  20337.06461501  .00000053  00000-0  22763-4 0  9996","TLE_LINE2":"2 46077  53.0048  92.0986 0000598 109.2456 250.8596 15.05592166 18845"},{"CCSDS_OMM_VERS":"2.0","COMMENT":"GENERATED VIA SPACE-TRACK.ORG API","CREATION_DATE":"2020-12-02T18:56:12","ORIGINATOR":"18 SPCS","OBJECT_NAME":"STARLINK-1577","OBJECT_ID":"2020-055AN","CENTER_NAME":"EARTH","REF_FRAME":"TEME","TIME_SYSTEM":"UTC","MEAN_ELEMENT_THEORY":"SGP4","EPOCH":"2020-12-02T01:53:10.968288","MEAN_MOTION":"15.06529065","ECCENTRICITY":"0.00011540","INCLINATION":"53.0241","RA_OF_ASC_NODE":"112.0176","ARG_OF_PERICENTER":"123.6504","MEAN_ANOMALY":"236.4595","EPHEMERIS_TYPE":"0","CLASSIFICATION_TYPE":"U","NORAD_CAT_ID":"46063","ELEMENT_SET_NO":"999","REV_AT_EPOCH":"1855","BSTAR":"-0.00131600000000","MEAN_MOTION_DOT":"-0.00019898","MEAN_MOTION_DDOT":"0.0000000000000","SEMIMAJOR_AXIS":"6924.953","PERIOD":"95.583","APOAPSIS":"547.617","PERIAPSIS":"546.018","OBJECT_TYPE":"PAYLOAD","RCS_SIZE":"LARGE","COUNTRY_CODE":"US","LAUNCH_DATE":"2020-08-07","SITE":"AFETR","DECAY_DATE":null,"FILE":"2895941","GP_ID":"166734960","TLE_LINE0":"0 STARLINK-1577","TLE_LINE1":"1 46063U 20055AN  20337.07859917 -.00019898  00000-0 -13160-2 0  9992","TLE_LINE2":"2 46063  53.0241 112.0176 0001154 123.6504 236.4595 15.06529065 18558"},{"CCSDS_OMM_VERS":"2.0","COMMENT":"GENERATED VIA SPACE-TRACK.ORG API","CREATION_DATE":"2020-12-02T19:24:44","ORIGINATOR":"18 SPCS","OBJECT_NAME":"STARLINK-1577","OBJECT_ID":"2020-055AN","CENTER_NAME":"EARTH","REF_FRAME":"TEME","TIME_SYSTEM":"UTC","MEAN_ELEMENT_THEORY":"SGP4","EPOCH":"2020-12-02T01:53:10.968288","MEAN_MOTION":"15.06529065","ECCENTRICITY":"0.00011540","INCLINATION":"53.0241","RA_OF_ASC_NODE":"112.0176","ARG_OF_PERICENTER":"123.6504","MEAN_ANOMALY":"236.4595","EPHEMERIS_TYPE":"0","CLASSIFICATION_TYPE":"U","NORAD_CAT_ID":"46063","ELEMENT_SET_NO":"999","REV_AT_EPOCH":"1909","BSTAR":"-0.00131600000000","MEAN_MOTION_DOT":"-0.00019898","MEAN_MOTION_DDOT":"0.0000000000000","SEMIMAJOR_AXIS":"6924.953","PERIOD":"95.583","APOAPSIS":"547.617","PERIAPSIS":"546.018","OBJECT_TYPE":"PAYLOAD","RCS_SIZE":"LARGE","COUNTRY_CODE":"US","LAUNCH_DATE":"2020-08-07","SITE":"AFETR","DECAY_DATE":null,"FILE":"2896233","GP_ID":"166760891","TLE_LINE0":"0 STARLINK-1577","TLE_LINE1":"1 46063U 20055AN  20337.07859917 -.00019898  00000-0 -13160-2 0  9992","TLE_LINE2":"2 46063  53.0241 112.0176 0001154 123.6504 236.4595 15.06529065 19098"},{"CCSDS_OMM_VERS":"2.0","COMMENT":"GENERATED VIA SPACE-TRACK.ORG API","CREATION_DATE":"2020-12-02T18:56:12","ORIGINATOR":"18 SPCS","OBJECT_NAME":"STARLINK-1574","OBJECT_ID":"2020-055AM","CENTER_NAME":"EARTH","REF_FRAME":"TEME","TIME_SYSTEM":"UTC","MEAN_ELEMENT_THEORY":"SGP4","EPOCH":"2020-12-02T01:58:36.669504","MEAN_MOTION":"15.06402636","ECCENTRICITY":"0.00014190","INCLINATION":"53.0205","RA_OF_ASC_NODE":"112.0042","ARG_OF_PERICENTER":"101.3749","MEAN_ANOMALY":"258.7399","EPHEMERIS_TYPE":"0","CLASSIFICATION_TYPE":"U","NORAD_CAT_ID":"46062","ELEMENT_SET_NO":"999","REV_AT_EPOCH":"1855","BSTAR":"0.00001971200000","MEAN_MOTION_DOT":"0.00000012","MEAN_MOTION_DDOT":"0.0000000000000","SEMIMAJOR_AXIS":"6925.340","PERIOD":"95.591","APOAPSIS":"548.188","PERIAPSIS":"546.222","OBJECT_TYPE":"PAYLOAD","RCS_SIZE":"LARGE","COUNTRY_CODE":"US","LAUNCH_DATE":"2020-08-07","SITE":"AFETR","DECAY_DATE":null,"FILE":"2895941","GP_ID":"166734464","TLE_LINE0":"0 STARLINK-1574","TLE_LINE1":"1 46062U 20055AM  20337.08236886  .00000012  00000-0  19712-4 0  9993","TLE_LINE2":"2 46062  53.0205 112.0042 0001419 101.3749 258.7399 15.06402636 18550"},{"CCSDS_OMM_VERS":"2.0","COMMENT":"GENERATED VIA SPACE-TRACK.ORG API","CREATION_DATE":"2020-12-02T19:24:44","ORIGINATOR":"18 SPCS","OBJECT_NAME":"STARLINK-1574","OBJECT_ID":"2020-055AM","CENTER_NAME":"EARTH","REF_FRAME":"TEME","TIME_SYSTEM":"UTC","MEAN_ELEMENT_THEORY":"SGP4","EPOCH":"2020-12-02T01:58:36.669504","MEAN_MOTION":"15.06402636","ECCENTRICITY":"0.00014190","INCLINATION":"53.0205","RA_OF_ASC_NODE":"112.0042","ARG_OF_PERICENTER":"101.3749","MEAN_ANOMALY":"258.7399","EPHEMERIS_TYPE":"0","CLASSIFICATION_TYPE":"U","NORAD_CAT_ID":"46062","ELEMENT_SET_NO":"999","REV_AT_EPOCH":"1906","BSTAR":"0.00001971200000","MEAN_MOTION_DOT":"0.00000012","MEAN_MOTION_DDOT":"0.0000000000000","SEMIMAJOR_AXIS":"6925.340","PERIOD":"95.591","APOAPSIS":"548.188","PERIAPSIS":"546.222","OBJECT_TYPE":"PAYLOAD","RCS_SIZE":"LARGE","COUNTRY_CODE":"US","LAUNCH_DATE":"2020-08-07","SITE":"AFETR","DECAY_DATE":null,"FILE":"2896233","GP_ID":"166760154","TLE_LINE0":"0 STARLINK-1574","TLE_LINE1":"1 46062U 20055AM  20337.08236886  .00000012  00000-0  19712-4 0  9993","TLE_LINE2":"2 46062  53.0205 112.0042 0001419 101.3749 258.7399 15.06402636 19067"}]